NORAD_CAT_ID,OBJECT_NAME,OBJECT_TYPE,EPOCH,MEAN_MOTION,ECCENTRICITY,INCLINATION,RA_OF_ASC_NODE,ARG_OF_PERICENTER,MEAN_ANOMALY,BSTAR,MEAN_MOTION_DOT,MEAN_MOTION_DDOT,TLE_LINE0,TLE_LINE1,TLE_LINE2,SEMIMAJOR_AXIS,PERIOD,APOGEE,PERIGEE,DECAYED
51776.0,STARLINK-3608,PAYLOAD,2023-04-29 20:28:18,15.08854284,0.0001858,53.2188,349.5787,75.9151,284.2047,-6.2561e-05,-1.284e-05,0.0,0 STARLINK-3608,1 51776U 22017J   23119.85299554 -.00001284  00000-0 -62561-4 0  9992,2 51776  53.2188 349.5787 0001858  75.9151 284.2047 15.08854284 64831,6917.837,95.437,540.987,538.416,0.0
51776.0,STARLINK-3608,PAYLOAD,2023-04-30 15:32:57,15.08830022,0.0001864,53.219,346.0115,70.6135,289.5058,0.00019001,2.736e-05,0.0,0 STARLINK-3608,1 51776U 22017J   23120.64788229  .00002736  00000-0  19001-3 0  9994,2 51776  53.2190 346.0115 0001864  70.6135 289.5058 15.08830022 66445,6917.911,95.438,541.065,538.486,0.0
51776.0,STARLINK-3608,PAYLOAD,2023-05-01 01:05:15,15.08866421,0.0001794,53.2189,344.225,85.4123,274.7074,-0.00029597,-4.999e-05,0.0,0 STARLINK-3608,1 51776U 22017J   23121.04531515 -.00004999  00000-0 -29597-3 0  9999,2 51776  53.2189 344.2250 0001794  85.4123 274.7074 15.08866421 66509,6917.8,95.436,540.906,538.424,0.0
51776.0,STARLINK-3608,PAYLOAD,2023-05-01 20:09:53,15.08853666,0.0002078,53.2195,340.6563,88.6889,271.4341,-0.00023142,-3.971e-05,0.0,0 STARLINK-3608,1 51776U 22017J   23121.84020333 -.00003971  00000-0 -23142-3 0  9997,2 51776  53.2195 340.6563 0002078  88.6889 271.4341 15.08853666 65139,6917.839,95.437,541.141,538.266,0.0
51776.0,STARLINK-3608,PAYLOAD,2023-05-01 23:20:39,15.08849586,0.0002217,53.2193,340.0613,92.7608,267.3637,-8.9125e-05,-1.707e-05,0.0,0 STARLINK-3608,1 51776U 22017J   23121.97268115 -.00001707  00000-0 -89125-4 0  9992,2 51776  53.2193 340.0613 0002217  92.7608 267.3637 15.08849586 66642,6917.851,95.437,541.25,538.182,0.0
51776.0,STARLINK-3608,PAYLOAD,2023-05-02 00:56:02,15.08844493,0.0001941,53.219,339.7634,88.8023,271.3192,3.6662e-05,2.95e-06,0.0,0 STARLINK-3608,1 51776U 22017J   23122.03892097  .00000295  00000-0  36662-4 0  9999,2 51776  53.2190 339.7634 0001941  88.8023 271.3192 15.08844493 65166,6917.867,95.437,541.074,538.389,0.0
51776.0,STARLINK-3608,PAYLOAD,2023-05-02 20:00:40,15.08840449,0.0001997,53.2189,336.1951,92.1819,267.9402,6.1955e-05,6.98e-06,0.0,0 STARLINK-3608,1 51776U 22017J   23122.83380329  .00000698  00000-0  61955-4 0  9997,2 51776  53.2189 336.1951 0001997  92.1819 267.9402 15.08840449 66779,6917.879,95.438,541.126,538.363,0.0
51776.0,STARLINK-3608,PAYLOAD,2023-05-02 21:36:03,15.0884121,0.0001909,53.2187,335.8974,96.1741,263.9468,8.0039e-05,9.86e-06,0.0,0 STARLINK-3608,1 51776U 22017J   23122.90004214  .00000986  00000-0  80039-4 0  9995,2 51776  53.2187 335.8974 0001909  96.1741 263.9468 15.08841210 65290,6917.877,95.437,541.062,538.421,0.0
51776.0,STARLINK-3608,PAYLOAD,2023-05-03 07:08:23,15.08833239,0.0002348,53.2188,334.112,89.7024,270.4237,1.3693e-05,-7e-07,0.0,0 STARLINK-3608,1 51776U 22017J   23123.29749132 -.00000070  00000-0  13693-4 0  9990,2 51776  53.2188 334.1120 0002348  89.7024 270.4237 15.08833239 66847,6917.901,95.438,541.39,538.142,0.0
51776.0,STARLINK-3608,PAYLOAD,2023-05-03 21:26:51,15.08839207,0.0001703,53.2181,331.4351,95.4036,264.7151,2.6656e-05,1.36e-06,0.0,0 STARLINK-3608,1 51776U 22017J   23123.89364678  .00000136  00000-0  26656-4 0  9999,2 51776  53.2181 331.4351 0001703  95.4036 264.7151 15.08839207 65444,6917.883,95.438,540.926,538.57,0.0
51776.0,STARLINK-3608,PAYLOAD,2023-05-04 02:13:00,15.08844736,0.0001681,53.2179,330.5425,94.5261,265.5924,7.0146e-05,8.29e-06,0.0,0 STARLINK-3608,1 51776U 22017J   23124.09236200  .00000829  00000-0  70146-4 0  9993,2 51776  53.2179 330.5425 0001681  94.5261 265.5924 15.08844736 66966,6917.866,95.437,540.894,538.568,0.0
51776.0,STARLINK-3608,PAYLOAD,2023-05-04 13:20:42,15.08831348,0.0001184,53.2179,328.4603,97.8421,262.2706,1.7822e-05,-4e-08,0.0,0 STARLINK-3608,1 51776U 22017J   23124.55605212 -.00000004  00000-0  17822-4 0  9995,2 51776  53.2179 328.4603 0001184  97.8421 262.2706 15.08831348 67038,6917.907,95.438,540.591,538.953,0.0
51776.0,STARLINK-3608,PAYLOAD,2023-05-04 21:17:37,15.08849436,0.0001427,53.2171,326.9738,94.9003,265.2152,6.7256e-05,7.83e-06,0.0,0 STARLINK-3608,1 51776U 22017J   23124.88724043  .00000783  00000-0  67256-4 0  9994,2 51776  53.2171 326.9738 0001427  94.9003 265.2152 15.08849436 67086,6917.852,95.437,540.704,538.729,0.0
51776.0,STARLINK-3608,PAYLOAD,2023-05-05 19:33:02,15.08837338,0.000167,53.2167,322.8097,97.6969,262.4213,9.6483e-05,1.248e-05,0.0,0 STARLINK-3608,1 51776U 22017J   23125.81460849  .00001248  00000-0  96483-4 0  9990,2 51776  53.2167 322.8097 0001670  97.6969 262.4213 15.08837338 65730,6917.889,95.438,540.909,538.598,0.0
51776.0,STARLINK-3608,PAYLOAD,2023-05-05 22:43:48,15.08843121,0.0001634,53.2172,322.2143,109.0908,251.0262,3.3725e-05,2.49e-06,0.0,0 STARLINK-3608,1 51776U 22017J   23125.94708584  .00000249  00000-0  33725-4 0  9995,2 51776  53.2172 322.2143 0001634 109.0908 251.0262 15.08843121 67246,6917.871,95.437,540.866,538.605,0.0
51776.0,STARLINK-3608,PAYLOAD,2023-05-06 19:23:48,15.08847303,0.0001113,53.2175,318.3475,105.1037,255.0078,0.00026144,3.876e-05,0.0,0 STARLINK-3608,1 51776U 22017J   23126.80819981  .00003876  00000-0  26144-3 0  9990,2 51776  53.2175 318.3475 0001113 105.1037 255.0078 15.08847303 65888,6917.858,95.437,540.493,538.953,0.0
51776.0,STARLINK-3608,PAYLOAD,2023-05-07 19:14:36,15.08839285,0.0001118,53.2166,313.8882,87.2489,272.8631,3.988e-05,3.47e-06,0.0,0 STARLINK-3608,1 51776U 22017J   23127.80180991  .00000347  00000-0  39880-4 0  9995,2 51776  53.2166 313.8882 0001118  87.2489 272.8631 15.08839285 67521,6917.883,95.438,540.521,538.974,0.0
51776.0,STARLINK-3608,PAYLOAD,2023-05-08 19:05:22,15.08850909,0.000101,53.2165,309.4304,89.6805,270.4303,2.3659e-05,8.9e-07,0.0,0 STARLINK-3608,1 51776U 22017J   23128.79540318  .00000089  00000-0  23659-4 0  9997,2 51776  53.2165 309.4304 0001010  89.6805 270.4303 15.08850909 66186,6917.847,95.437,540.411,539.013,0.0
51776.0,STARLINK-3608,PAYLOAD,2023-05-09 04:37:41,15.08841755,0.0001049,53.2162,307.6457,90.3185,269.7927,6.8109e-05,7.96e-06,0.0,0 STARLINK-3608,1 51776U 22017J   23129.19284701  .00000796  00000-0  68109-4 0  9997,2 51776  53.2162 307.6457 0001049  90.3185 269.7927 15.08841755 66243,6917.875,95.437,540.466,539.014,0.0
51776.0,STARLINK-3608,PAYLOAD,2023-05-10 04:28:29,15.08842165,0.0001111,53.2167,303.1864,100.5962,259.5155,0.00010214,1.338e-05,0.0,0 STARLINK-3608,1 51776U 22017J   23130.18644758  .00001338  00000-0  10214-3 0  9996,2 51776  53.2167 303.1864 0001111 100.5962 259.5155 15.08842165 66390,6917.874,95.437,540.507,538.97,0.0
51776.0,STARLINK-3608,PAYLOAD,2023-05-10 18:46:57,15.08842464,0.0001349,53.2171,300.5104,96.8708,263.2437,-1.0165e-05,-4.5e-06,0.0,0 STARLINK-3608,1 51776U 22017J   23130.78260878 -.00000450  00000-0 -10165-4 0  9991,2 51776  53.2171 300.5104 0001349  96.8708 263.2437 15.08842464 67973,6917.873,95.437,540.671,538.805,0.0
51776.0,STARLINK-3608,PAYLOAD,2023-05-11 04:19:16,15.0884345,0.0001113,53.2166,298.7244,88.6406,271.4713,3.0576e-05,1.99e-06,0.0,0 STARLINK-3608,1 51776U 22017J   23131.18004761  .00000199  00000-0  30576-4 0  9999,2 51776  53.2166 298.7244 0001113  88.6406 271.4713 15.08843450 66549,6917.87,95.437,540.505,538.965,0.0
51776.0,STARLINK-3608,PAYLOAD,2023-05-11 17:02:21,15.08843898,0.0001122,53.2163,296.3458,87.3207,272.7914,8.1549e-05,1.01e-05,0.0,0 STARLINK-3608,1 51776U 22017J   23131.70996859  .00001010  00000-0  81549-4 0  9994,2 51776  53.2163 296.3458 0001122  87.3207 272.7914 15.08843898 66624,6917.868,95.437,540.51,538.957,0.0
51776.0,STARLINK-3608,PAYLOAD,2023-05-12 04:10:03,15.08841478,9.81e-05,53.2164,294.2639,95.5031,264.6073,3.8739e-05,3.29e-06,0.0,0 STARLINK-3608,1 51776U 22017J   23132.17364867  .00000329  00000-0  38739-4 0  9999,2 51776  53.2164 294.2639 0000981  95.5031 264.6073 15.08841478 68182,6917.876,95.437,540.42,539.062,0.0
51776.0,STARLINK-3608,PAYLOAD,2023-05-12 16:53:08,15.08835347,8.18e-05,53.2156,291.8824,101.4451,258.6633,8.7525e-05,1.105e-05,0.0,0 STARLINK-3608,1 51776U 22017J   23132.70357298  .00001105  00000-0  87525-4 0  9998,2 51776  53.2156 291.8824 0000818 101.4451 258.6633 15.08835347 68266,6917.895,95.438,540.325,539.194,0.0
51776.0,STARLINK-3608,PAYLOAD,2023-05-13 04:00:50,15.08837666,0.0001025,53.2165,289.8005,97.6013,262.5096,4.6328e-05,4.5e-06,0.0,0 STARLINK-3608,1 51776U 22017J   23133.16725359  .00000450  00000-0  46328-4 0  9994,2 51776  53.2165 289.8005 0001025  97.6013 262.5096 15.08837666 66840,6917.888,95.438,540.462,539.043,0.0
51776.0,STARLINK-3608,PAYLOAD,2023-05-13 16:43:55,15.08842722,8.13e-05,53.2149,287.4253,100.0976,260.0108,-1.4963e-05,-5.26e-06,0.0,0 STARLINK-3608,1 51776U 22017J   23133.69717344 -.00000526  00000-0 -14963-4 0  9993,2 51776  53.2149 287.4253 0000813 100.0976 260.0108 15.08842722 66927,6917.872,95.437,540.299,539.175,0.0
51776.0,STARLINK-3608,PAYLOAD,2023-05-14 13:23:57,15.08825383,8.53e-05,53.2142,283.5591,82.7878,277.3211,0.00023205,3.406e-05,0.0,0 STARLINK-3608,1 51776U 22017J   23134.55830098  .00003406  00000-0  23205-3 0  9997,2 51776  53.2142 283.5591 0000853  82.7878 277.3211 15.08825383 68543,6917.925,95.438,540.38,539.2,0.0
51776.0,STARLINK-3608,PAYLOAD,2023-05-14 16:34:42,15.08838075,9.29e-05,53.2156,282.9634,85.3547,274.7552,0.00012492,1.701e-05,0.0,0 STARLINK-3608,1 51776U 22017J   23134.69077477  .00001701  00000-0  12492-3 0  9998,2 51776  53.2156 282.9634 0000929  85.3547 274.7552 15.08838075 67073,6917.886,95.438,540.394,539.109,0.0
51776.0,STARLINK-3608,PAYLOAD,2023-05-15 10:03:57,15.08835487,9.35e-05,53.2162,279.693,77.3533,282.7563,7.9085e-05,9.71e-06,0.0,0 STARLINK-3608,1 51776U 22017J   23135.41941896  .00000971  00000-0  79085-4 0  9994,2 51776  53.2162 279.6930 0000935  77.3533 282.7563 15.08835487 67182,6917.894,95.438,540.406,539.112,0.0
